ONEWEB-0108             
1 48076U 21025AL  23292.12601305  .00000068  00000+0  15245-3 0  9994
2 48076  87.9024 153.6505 0001838  82.1852 277.9486 13.13472098126042
ONEWEB-0169             
1 48077U 21025AM  23292.15563505  .00000305  00000+0  80012-3 0  9995
2 48077  87.9033 153.6469 0001926  86.3747 273.7603 13.13472412124705
ONEWEB-0176             
1 48210U 21031A   23292.45855971  .00000219  00000+0  55571-3 0  9991
2 48210  87.8945 123.1364 0001601  84.2975 275.8337 13.14504052120655
ONEWEB-0184             
1 48211U 21031B   23292.50930055  .00000155  00000+0  38228-3 0  9994
2 48211  87.8956 123.1096 0001679  42.5453 317.5807 13.14505287120638
ONEWEB-0179             
1 48212U 21031C   23292.47757583 -.00000116  00000+0 -34634-3 0  9990
2 48212  87.8959 123.1110 0001364  90.1268 270.0018 13.14501324120672
ONEWEB-0180             
1 48213U 21031D   23292.51140115 -.00000154  00000+0 -44910-3 0  9993
2 48213  87.8955 123.1073 0001380  88.1367 271.9921 13.14502951120560
ONEWEB-0218             
1 48214U 21031E   23292.45645751  .00000341  00000+0  88436-3 0  9990
2 48214  87.8957 123.1199 0001174  33.9404 326.1800 13.14503234120714
ONEWEB-0209             
1 48215U 21031F   23292.52199291  .00000163  00000+0  40466-3 0  9995
2 48215  87.8949 123.1448 0001490  86.9035 273.2266 13.14501409120723
